[{"OBJECT_NAME":"PRAETORIAN SDA_619","OBJECT_ID":"2025-203T","EPOCH":"2026-03-09T14:29:57.164640","MEAN_MOTION":13.83929489,"ECCENTRICITY":0.0009419,"INCLINATION":81.3013,"RA_OF_ASC_NODE":102.9558,"ARG_OF_PERICENTER":101.1337,"MEAN_ANOMALY":259.0878,"EPHEMERIS_TYPE":0,"CLASSIFICATION_TYPE":"U","NORAD_CAT_ID":65582,"ELEMENT_SET_NO":999,"REV_AT_EPOCH":2555,"BSTAR":0.00020555,"MEAN_MOTION_DOT":2.4e-6,"MEAN_MOTION_DDOT":0},{"OBJECT_NAME":"CZ-6A DEB","OBJECT_ID":"2022-151AGG","EPOCH":"2026-02-17T21:29:42.731808","MEAN_MOTION":13.99119479,"ECCENTRICITY":0.0122005,"INCLINATION":98.861,"RA_OF_ASC_NODE":23.6532,"ARG_OF_PERICENTER":43.4757,"MEAN_ANOMALY":317.5949,"EPHEMERIS_TYPE":0,"CLASSIFICATION_TYPE":"U","NORAD_CAT_ID":56656,"ELEMENT_SET_NO":999,"REV_AT_EPOCH":14373,"BSTAR":0.0017334,"MEAN_MOTION_DOT":2.634e-5,"MEAN_MOTION_DDOT":0}]
